SCD 1                   
1 22490U 93009B   23220.29813156  .00000578  00000+0  10970-3 0  9991
2 22490  24.9685 167.5620 0042487 258.4001 234.9761 14.44970308610307
TECHSAT 1B (GO-32)      
1 25397U 98043D   23221.34437182  .00000132  00000+0  77639-4 0  9993
2 25397  98.8722 179.2693 0001482  30.5188 329.6076 14.23896035303113
SCD 2                   
1 25504U 98060A   23221.15246804  .00000547  00000+0  10415-3 0  9998
2 25504  24.9965  19.6616 0016913 269.3284 252.0140 14.44471102309651
LANDSAT 7               
1 25682U 99020A   23221.38260713  .00000578  00000+0  12908-3 0  9995
2 25682  97.9262 257.4108 0001204 100.9456 314.4457 14.60181833293545
DLR-TUBSAT              
1 25757U 99029B   23221.33501345  .00000222  00000+0  67111-4 0  9994
2 25757  98.5369 174.2588 0013198 285.7855  74.1884 14.51691065282007
TERRA                   
1 25994U 99068A   23221.40268726  .00000626  00000+0  14202-3 0  9991
2 25994  98.0914 288.4665 0000600 227.7535 192.1463 14.59264118257548
MAROC-TUBSAT            
1 27004U 01056D   23220.70222664 -.00000004  00000+0  47129-4 0  9994
2 27004  99.6880   7.4141 0019109 300.3081  74.2676 13.70180576 83288
AQUA                    
1 27424U 02022A   23221.40736802  .00001210  00000+0  27217-3 0  9990
2 27424  98.2887 165.6480 0001810  58.6099  93.7696 14.58226109131115
IRS-P6 (RESOURCESAT-1)  
1 28051U 03046A   23221.47155941  .00000298  00000+0  11866-3 0  9998
2 28051  98.3559 284.7762 0058032 212.2418 157.0976 14.34398758 30944
SHIYAN 1 (SY-1)         
1 28220U 04012A   23220.76403614  .00006834  00000+0  46908-3 0  9991
2 28220  97.9887 231.2399 0010647  22.3633 337.8055 15.06292616 52916
AURA                    
1 28376U 04026A   23221.38361004  .00001177  00000+0  26819-3 0  9997
2 28376  98.2116 164.3396 0001452  64.8216 295.3133 14.57633234 14139
IRS-P5 (CARTOSAT-1)     
1 28649U 05017A   23220.86791869  .00001848  00000+0  22024-3 0  9998
2 28649  97.6630 271.6447 0000283  63.4214 296.7030 14.85460635988695
SINAH 1                 
1 28893U 05043D   23221.31515475  .00000575  00000+0  12347-3 0  9999
2 28893  98.1584 343.2904 0013892 306.2585  53.7332 14.62183173948262
EROS B                  
1 29079U 06014A   23221.34591865  .00020914  00000+0  89579-3 0  9995
2 29079  97.3327 339.2888 0017434 205.6051 154.4324 15.22664352960003
RESURS-DK 1             
1 29228U 06021A   23221.21586804  .00002587  00000+0  18830-3 0  9990
2 29228  69.9357 143.0317 0003594 180.2488 179.8672 15.05117584945224
ARIRANG-2 (KOMPSAT-2)   
1 29268U 06031A   23221.44360017  .00000408  00000+0  87848-4 0  9992
2 29268  97.9004  78.5436 0015822 132.9206 347.9883 14.63174607909001
LAPAN-TUBSAT            
1 29709U 07001A   23221.40075894  .00000923  00000+0  11959-3 0  9993
2 29709  98.0234 189.1507 0012152 344.3027  15.7808 14.83205995896435
CARTOSAT-2 (IRS-P7)     
1 29710U 07001B   23221.39619286  .00042435  00000+0  48503-3 0  9991
2 29710  97.8978   4.1307 0087182   7.6700 352.5863 15.57398761900575
HAIYANG-1B              
1 31113U 07010A   23221.30447013  .00000142  00000+0  70467-4 0  9993
2 31113  98.2969 232.6820 0014836  57.4373 302.8241 14.30454212852245
COSMO-SKYMED 1          
1 31598U 07023A   23221.42723580  .00001002  00000+0  13242-3 0  9996
2 31598  97.8900  44.1322 0001421  86.8135 273.3240 14.82140827874878
TERRASAR-X              
1 31698U 07026A   23221.29940768  .00003161  00000+0  15362-3 0  9997
2 31698  97.4453 227.9342 0001825  86.2970 273.8473 15.19153596895559
WORLDVIEW-1 (WV-1)      
1 32060U 07041A   23220.59174393  .00009634  00000+0  39721-3 0  9999
2 32060  97.3936 339.4599 0003119  58.1278 302.0263 15.24273966884031
YAOGAN 3                
1 32289U 07055A   23221.37241515  .00002343  00000+0  29380-3 0  9995
2 32289  97.9181 244.6324 0001325 107.6891 252.4468 14.83141662850931
COSMO-SKYMED 2          
1 32376U 07059A   23221.46100578  .00000739  00000+0  99389-4 0  9993
2 32376  97.8901  44.1676 0001453  83.4268 276.7110 14.82146587847626
RADARSAT-2              
1 32382U 07061A   23221.33221261  .00000114  00000+0  61172-4 0  9998
2 32382  98.5779 227.2118 0001247  90.8390 269.2935 14.29983352817021
CARTOSAT-2A             
1 32783U 08021A   23221.41279867  .00001115  00000+0  15885-3 0  9995
2 32783  97.9126 281.0044 0011344 251.2880 108.7101 14.78707298824787
HUANJING 1A (HJ-1A)     
1 33320U 08041A   23221.36350086  .00000954  00000+0  13674-3 0  9996
2 33320  97.6435 239.0321 0019528 314.7430  45.2192 14.78572946804114
HUANJING 1B (HJ-1B)     
1 33321U 08041B   23221.40465246  .00002117  00000+0  28880-3 0  9995
2 33321  97.6450 243.4430 0038973 359.8287   0.2905 14.79141849804126
GEOEYE 1                
1 33331U 08042A   23221.44112944  .00000753  00000+0  15171-3 0  9998
2 33331  98.0830 294.7259 0008289  66.0395 294.1675 14.64247856797540
THEOS                   
1 33396U 08049A   23221.39249581  .00000076  00000+0  56175-4 0  9996
2 33396  98.7008 288.2691 0001252 100.1501 259.9817 14.20029543769982
COSMO-SKYMED 3          
1 33412U 08054A   23221.37131026  .00003335  00000+0  31475-3 0  9999
2 33412  97.8898  51.1195 0017263 170.6379 189.5166 14.94340020800526
YAOGAN 4                
1 33446U 08061A   23221.34603939  .00001521  00000+0  21502-3 0  9993
2 33446  97.8518 154.9994 0014753 215.9318 144.0903 14.78479358791318
GOSAT (IBUKI)           
1 33492U 09002A   23220.96420802  .00001614  00000+0  29260-3 0  9995
2 33492  98.0147 333.7742 0001524  91.3351 268.8029 14.67577996778913
YAOGAN 6                
1 34839U 09021A   23221.35310718  .00010349  00000+0  28796-3 0  9998
2 34839  97.1293 190.0084 0020851 232.7352 127.1992 15.36787716795252
DEIMOS-1                
1 35681U 09041A   23221.36669538  .00000726  00000+0  12122-3 0  9998
2 35681  97.6836  55.2294 0001208  25.2957 334.8311 14.72619473753262
DUBAISAT-1              
1 35682U 09041B   23221.34959648  .00001582  00000+0  27002-3 0  9995
2 35682  97.8624   2.6983 0011467 167.9753 192.1730 14.70233271751654
OCEANSAT-2              
1 35931U 09051A   23221.41149135  .00000271  00000+0  21231-3 0  9995
2 35931  98.3095 294.7210 0014750 300.2744  59.6962 13.99368004733473
WORLDVIEW-2 (WV-2)      
1 35946U 09055A   23221.44199291  .00000201  00000+0  81516-4 0  9992
2 35946  98.4482 295.2729 0002501 112.8146 247.3306 14.37468525725960
SMOS                    
1 36036U 09059A   23220.77298058  .00000490  00000+0  17024-3 0  9995
2 36036  98.4440  47.2575 0001151  92.2428 267.8892 14.39736139723453
YAOGAN 7                
1 36110U 09069A   23221.40060360  .00000658  00000+0  10375-3 0  9991
2 36110  98.1506  90.5443 0026457 148.0346 212.2474 14.75599494735753
TANDEM-X                
1 36605U 10030A   23220.20346134 -.00111447  00000+0 -53929-2 0  9995
2 36605  97.4485 226.8556 0002837 109.7003  20.6082 15.19096633728135
CARTOSAT-2B             
1 36795U 10035A   23221.44990078  .00001109  00000+0  15819-3 0  9997
2 36795  97.9070 280.9008 0012596 336.7319  23.3320 14.78663868705839
YAOGAN 10               
1 36834U 10038A   23221.40843601  .00000928  00000+0  12364-3 0  9999
2 36834  97.9653 235.2069 0001323  96.8960  10.3783 14.82005879702666
COSMO-SKYMED 4          
1 37216U 10060A   23221.40616449  .00000712  00000+0  95975-4 0  9998
2 37216  97.8874  44.1142 0001500  87.9057 272.2328 14.82148365690162
RESOURCESAT-2           
1 37387U 11015A   23221.46814654  .00000183  00000+0  10319-3 0  9992
2 37387  98.6190 290.2602 0003310 309.3049  50.7835 14.21679204638550
HAIYANG-2A              
1 37781U 11043A   23221.28562429  .00000004  00000+0  47227-4 0  9992
2 37781  99.3215 224.9749 0001154 126.5269 233.5988 13.78763818603218
RASAT                   
1 37791U 11044D   23221.44004839  .00000755  00000+0  14739-3 0  9992
2 37791  98.0882 312.8625 0020340 250.5924 177.2023 14.65633600640328
SRMSAT                  
1 37841U 11058D   23220.42498157  .00000538  00000+0  15031-3 0  9995
2 37841  19.9708 254.1889 0011646 245.6301 235.1261 14.10924545610412
YAOGAN 13               
1 37941U 11072A   23221.40975862  .00011715  00000+0  41401-3 0  9993
2 37941  97.6822 185.8212 0002882  70.0985 290.0565 15.29356158648477
PLEIADES 1A             
1 38012U 11076F   23221.44079035  .00000517  00000+0  12091-3 0  9999
2 38012  98.1971 295.5616 0001483 103.6465 267.2314 14.58569803620008
ZIYUAN 1-02C (ZY 1-02C) 
1 38038U 11079A   23221.47017221  .00000582  00000+0  21416-3 0  9995
2 38038  98.5398 288.2766 0006924 168.8379 200.4047 14.36293083609470
ZIYUAN 3-1 (ZY 3-1)     
1 38046U 12001A   23221.45585916  .00009887  00000+0  39940-3 0  9997
2 38046  97.2920 286.2622 0004640 173.6881 186.4417 15.24945312643198
ARIRANG-3 (KOMPSAT-3)   
1 38338U 12025B   23221.39002735  .00000781  00000+0  16497-3 0  9999
2 38338  98.2215 163.2612 0011354 132.4434 227.7729 14.62063617599027
KANOPUS-V 1             
1 38707U 12039A   23220.73577717  .00016128  00000+0  53366-3 0  9996
2 38707  97.4760 147.5870 0002964  99.0905 261.0671 15.31408982613010
EXACTVIEW-1 (ADS-1B)    
1 38709U 12039C   23221.22704374  .00000163  00000+0  90524-4 0  9994
2 38709  98.9691 302.0448 0009988 299.2437  60.7742 14.24264953574206
SPOT 6                  
1 38755U 12047A   23221.45470285  .00000512  00000+0  11991-3 0  9998
2 38755  98.1861 288.0223 0001308 106.9634 253.1709 14.58577528581080
PLEIADES 1B             
1 39019U 12068A   23221.47282093  .00000522  00000+0  12200-3 0  9990
2 39019  98.1922 295.5349 0001427  95.8279 264.3083 14.58574349568854
GOKTURK 2               
1 39030U 12073A   23221.40209211  .00000659  00000+0  10934-3 0  9996
2 39030  97.7967  90.3275 0002084  96.0630 264.0816 14.73281188570873
LANDSAT 8               
1 39084U 13008A   23221.41574931  .00000530  00000+0  12763-3 0  9999
2 39084  98.2234 290.6906 0001382  91.1125 269.0231 14.57114740557867
SARAL                   
1 39086U 13009A   23221.05401209  .00000175  00000+0  81251-4 0  9993
2 39086  98.5491  45.5755 0002937 114.1225 246.0266 14.32243734546253
